OBJECT_NAME,OBJECT_ID,EPOCH,MEAN_MOTION,ECCENTRICITY,INCLINATION,RA_OF_ASC_NODE,ARG_OF_PERICENTER,MEAN_ANOMALY,EPHEMERIS_TYPE,CLASSIFICATION_TYPE,NORAD_CAT_ID,ELEMENT_SET_NO,REV_AT_EPOCH,BSTAR,MEAN_MOTION_DOT,MEAN_MOTION_DDOT
STARLINK-1420,2020-035AQ,2026-06-27T00:00:02.999808,15.72604147,.00016922,53.0425,207.2073,90.0647,323.1313,0,U,45695,999,583,.2151758E-3,.28932E-3,0
STARLINK-1422,2020-035AR,2026-06-26T14:47:38.878080,15.38481325,.0001454,53.1556,261.7764,80.6969,279.4199,0,U,45696,999,33567,.62614E-3,.23809E-3,0
STARLINK-1351,2020-035AS,2026-06-26T18:58:01.819776,15.68184815,.00004633,53.0398,209.0510,317.4728,42.6252,0,U,45697,999,33641,.42861379E-3,.48478E-3,0
STARLINK-1400,2020-035AV,2026-06-27T00:00:02.999808,15.72538500,.00013397,53.0393,210.4881,84.1257,345.9255,0,U,45700,999,592,.15181229E-3,.20152E-3,0
STARLINK-1403,2020-035AW,2026-06-26T21:46:18.463296,15.35602264,.00034793,53.1543,248.1469,338.0619,22.0235,0,U,45701,999,33588,.1293728E-2,.45318E-3,0
STARLINK-1407,2020-035AY,2026-06-26T04:27:41.220864,15.77180503,.0006718,53.0261,140.0008,84.4786,275.6999,0,U,45703,999,33732,.54800221E-3,.91962E-3,0
STARLINK-1423,2020-035BF,2026-06-26T09:11:27.846816,15.71235706,.0003647,53.0402,209.6740,114.7005,245.4392,0,U,45710,999,33635,.46321E-3,.59659E-3,0
STARLINK-1433,2020-035BG,2026-06-27T00:00:02.999808,15.76278816,.00017114,53.0406,205.0282,82.6153,345.1210,0,U,45711,999,599,.54049671E-3,.86974E-3,0
STARLINK-1434,2020-035BH,2026-06-26T21:02:43.569024,15.35971565,.00027266,53.0495,230.5801,36.2921,323.8265,0,U,45712,999,33612,.8421545E-3,.29657E-3,0
STARLINK-1465,2020-038B,2026-06-26T20:07:22.963008,15.70278581,.00016888,53.0444,51.7446,143.9996,216.1134,0,U,45731,999,33341,.49078634E-3,.60742E-3,0
STARLINK-1471,2020-038F,2026-06-26T16:27:51.477408,15.54502955,.0001222,53.0465,337.5673,191.4518,168.6464,0,U,45735,999,33445,.39693208E-3,.26212E-3,0
STARLINK-1480,2020-038M,2026-06-26T22:10:40.924992,15.67200965,.00051778,53.0480,45.4594,94.2421,265.9187,0,U,45741,999,33352,.51622057E-3,.56275E-3,0
STARLINK-1500,2020-038Q,2026-06-26T21:07:44.352480,15.40127941,.00010803,53.0363,38.3934,194.8495,165.2477,0,U,45744,999,33361,.67887964E-3,.27312E-3,0
STARLINK-1504,2020-038S,2026-06-26T19:45:13.607424,15.60380841,.00013902,53.0202,332.7947,171.5527,188.5508,0,U,45746,999,33451,.47413951E-3,.3928E-3,0
STARLINK-1506,2020-038T,2026-06-26T22:05:26.063520,15.29061004,.00017204,53.0770,56.0154,222.2008,137.8859,0,U,45747,999,33338,.25977448E-3,.7081E-4,0
STARLINK-1464,2020-038X,2026-06-26T21:33:29.365056,15.55169645,.00043136,53.0473,40.2710,94.0819,266.0684,0,U,45751,999,33359,.45208905E-3,.30694E-3,0
STARLINK-1477,2020-038AA,2026-06-26T23:41:49.822080,15.19845716,.00020649,53.0494,74.0389,52.4299,307.6883,0,U,45754,999,33312,.14545256E-2,.31395E-3,0
STARLINK-1478,2020-038AB,2026-06-27T00:00:02.999808,15.72755820,.00006713,53.0441,22.3376,65.9300,45.0677,0,U,45755,999,598,.12947646E-3,.17253E-3,0
STARLINK-1493,2020-038AF,2026-06-26T22:17:06.760608,15.66974055,.00054338,53.0463,32.9853,87.7804,272.3833,0,U,45759,999,33368,.52268886E-3,.56467E-3,0
STARLINK-1502,2020-038AL,2026-06-27T00:00:02.999808,15.66295912,.00009637,53.0441,36.7271,63.9313,264.0329,0,U,45764,999,595,.86877523E-4,.8604E-4,0
STARLINK-1470,2020-038AU,2026-06-26T20:15:49.983264,15.36783384,.00027758,53.0435,24.1462,92.5107,267.6213,0,U,45772,999,33381,.13722778E-2,.49995E-3,0
STARLINK-1482,2020-038AV,2026-06-26T21:17:24.029952,15.39411867,.00036506,53.1569,40.2497,91.6706,268.4717,0,U,45773,999,33361,.8679139E-3,.3424E-3,0
STARLINK-1496,2020-038BC,2026-06-26T21:46:34.695264,15.71018405,.00021393,53.0447,6.8872,292.9291,67.1500,0,U,45780,999,33404,.50365158E-3,.64351E-3,0
STARLINK-1513,2020-038BJ,2026-06-26T21:22:11.801568,15.31687675,.0001024,53.1601,43.1431,68.2351,291.8760,0,U,45786,999,33357,.33860652E-3,.10153E-3,0
STARLINK-1522,2020-055A,2026-06-26T21:52:46.220448,15.13949372,.00020579,53.0642,352.3365,84.9326,275.1901,0,U,46027,999,32540,.14742553E-2,.26838E-3,0
STARLINK-1523,2020-055B,2026-06-26T20:20:37.473216,15.31766307,.00013799,53.1621,339.5575,314.4101,45.6788,0,U,46028,999,32561,.15956419E-2,.49582E-3,0
STARLINK-1526,2020-055C,2026-06-26T20:13:11.741664,15.31723277,.00010698,53.1616,339.5959,75.9531,284.1589,0,U,46029,999,32560,.11476956E-3,.32E-4,0
STARLINK-1555,2020-055F,2026-06-26T19:53:03.703776,15.31719223,.00014087,53.1622,339.6650,88.8849,271.2313,0,U,46032,999,32560,.1394447E-3,.3967E-4,0
STARLINK-1556,2020-055G,2026-06-26T21:00:10.664352,15.31726305,.00009433,53.1575,339.4437,83.8383,276.2726,0,U,46033,999,32558,.40109633E-3,.12112E-3,0
STARLINK-1557,2020-055H,2026-06-26T21:13:37.656768,15.31721759,.00012064,53.1573,339.4634,95.5722,264.5417,0,U,46034,999,32558,.40329584E-3,.12179E-3,0
STARLINK-1558,2020-055J,2026-06-26T21:30:18.110016,15.30220678,.0001124,53.1594,339.4536,91.1176,268.9954,0,U,46035,999,32561,-.14686911E-3,-.4709E-4,0
STARLINK-1560,2020-055K,2026-06-26T19:32:58.046208,15.31702757,.00011834,53.1583,339.8155,87.8981,272.2156,0,U,46036,999,32560,.42717376E-3,.12915E-3,0
STARLINK-1569,2020-055N,2026-06-26T21:20:18.668544,15.31721590,.00012258,53.1610,339.3719,85.6223,274.4919,0,U,46039,999,32560,.2272771E-3,.6699E-4,0
STARLINK-1582,2020-055S,2026-06-26T19:58:40.980864,15.31719118,.0001103,53.1601,338.9452,86.6275,273.4852,0,U,46043,999,32560,.37380698E-3,.11259E-3,0
STARLINK-1591,2020-055U,2026-06-26T20:33:19.253376,15.31724634,.00009912,53.1606,339.5265,79.5299,280.5814,0,U,46045,999,32558,.73497516E-4,.1918E-4,0
STARLINK-1524,2020-055W,2026-06-26T17:40:32.645280,15.31712180,.00011477,53.1613,326.6916,67.1220,292.9903,0,U,46047,999,32577,.75235309E-4,.1971E-4,0
STARLINK-1527,2020-055X,2026-06-26T19:07:47.356032,15.31714105,.00008133,53.1599,326.3889,101.9127,258.1965,0,U,46048,999,32575,.14048763E-4,.71E-6,0
STARLINK-1540,2020-055AA,2026-06-26T20:21:38.888928,15.31751327,.0001296,53.1607,326.3609,96.9526,263.1623,0,U,46051,999,32580,-.16496134E-3,-.5489E-4,0
STARLINK-1541,2020-055AB,2026-06-27T00:00:02.999808,15.92643055,.00106694,53.1544,301.6383,325.2003,323.4209,0,U,46052,999,602,.79213929E-3,.27656E-2,.40074767E-4
STARLINK-1543,2020-055AC,2026-06-26T19:41:20.015520,15.31711660,.0001185,53.1608,326.2973,72.6579,287.4552,0,U,46053,999,32579,.8551927E-4,.229E-4,0
STARLINK-1548,2020-055AD,2026-06-26T20:01:29.923104,15.31717927,.00008782,53.1595,326.3058,101.0733,259.0367,0,U,46054,999,32579,.20151591E-3,.5897E-4,0
STARLINK-1554,2020-055AE,2026-06-26T19:34:38.013600,15.31722285,.0001196,53.1620,326.3362,81.7417,278.3720,0,U,46055,999,32579,.6093146E-4,.1527E-4,0
STARLINK-1564,2020-055AH,2026-06-26T19:46:30.437760,15.30180617,.00013998,53.1618,327.4515,81.8729,278.2430,0,U,46058,999,32577,-.1258226E-4,-.732E-5,0
STARLINK-1570,2020-055AJ,2026-06-26T17:06:58.169664,15.31707352,.00009058,53.1599,326.6984,107.6097,252.5004,0,U,46059,999,32573,.1050985E-3,.2898E-4,0
STARLINK-1572,2020-055AK,2026-06-26T19:19:05.482848,15.30209796,.0000835,53.1624,327.2863,68.9179,291.1911,0,U,46060,999,32574,.72368393E-4,.1786E-4,0
STARLINK-1573,2020-055AL,2026-06-26T19:54:44.307936,15.31732478,.00007747,53.1596,326.1211,82.0923,278.0166,0,U,46061,999,32579,-.57405568E-4,-.2148E-4,0
STARLINK-1577,2020-055AN,2026-06-26T19:01:04.357056,15.31689216,.00010749,53.1603,326.2892,122.6328,237.4777,0,U,46063,999,32578,-.25191749E-4,-.1146E-4,0
STARLINK-1583,2020-055AP,2026-06-26T19:21:18.811008,15.31695268,.00016305,53.1609,326.7247,92.4329,267.6859,0,U,46064,999,32577,.74049595E-3,.2268E-3,0
STARLINK-1536,2020-055AV,2026-06-26T16:15:13.428000,15.31714803,.0001244,53.1594,314.7152,88.0180,272.0964,0,U,46070,999,32593,.11206764E-3,.3115E-4,0
STARLINK-1542,2020-055AY,2026-06-26T19:58:14.080224,15.31724716,.00012161,53.1595,316.9636,60.6975,299.4148,0,U,46073,999,32590,.21469655E-3,.6308E-4,0
STARLINK-1549,2020-055AZ,2026-06-27T00:00:02.999808,15.33192102,.00012044,53.0492,313.2068,92.3987,291.7473,0,U,46074,999,581,.46395071E-3,.14747E-3,0
STARLINK-1551,2020-055BA,2026-06-26T19:10:11.426304,15.31709069,.0001426,53.1602,314.0858,78.5812,281.5349,0,U,46075,999,32594,.14877515E-3,.4255E-4,0
STARLINK-1552,2020-055BB,2026-06-26T18:49:58.308960,15.31724426,.00011117,53.1602,313.7338,74.4965,285.6160,0,U,46076,999,32593,.75654002E-4,.1985E-4,0
STARLINK-1559,2020-055BC,2026-06-26T16:31:56.609760,15.40131684,.00025597,53.0223,282.3805,340.3008,19.7897,0,U,46077,999,32632,.11371438E-2,.46143E-3,0
STARLINK-1566,2020-055BE,2026-06-26T18:56:39.301728,15.31717721,.00012575,53.1606,313.5661,78.5873,281.5270,0,U,46079,999,32595,.15889672E-3,.4571E-4,0
STARLINK-1568,2020-055BF,2026-06-26T20:06:01.603584,15.55866966,.0003208,53.0562,228.4734,66.6417,293.4931,0,U,46080,999,32713,.58957641E-3,.41281E-3,0
STARLINK-1578,2020-055BH,2026-06-26T19:02:58.727328,15.31740709,.00008309,53.1605,314.0625,95.9255,264.1841,0,U,46082,999,32594,.25828571E-3,.7668E-4,0
STARLINK-1579,2020-055BJ,2026-06-26T18:43:15.983904,15.31693069,.00015611,53.1608,313.6586,80.7122,279.4056,0,U,46083,999,32594,.54216992E-3,.16493E-3,0
STARLINK-1622,2020-057M,2026-06-27T00:00:02.999808,15.93786733,.00046593,53.0117,38.5377,208.5236,359.3518,0,U,46128,999,602,.97985236E-3,.362774E-2,.62305E-4
STARLINK-1623,2020-057N,2026-06-26T22:40:36.705792,15.79861152,.00036138,53.0383,78.7409,123.0397,237.0971,0,U,46129,999,32404,.86503586E-3,.165532E-2,0
STARLINK-1596,2020-057AA,2026-06-26T23:17:04.886016,15.63246493,.00047536,53.0333,63.3106,113.1945,246.9569,0,U,46141,999,32426,.12406859E-2,.117002E-2,0
STARLINK-1597,2020-057AB,2026-06-26T13:07:40.273824,15.79111808,.000423,53.0389,120.5412,102.2593,257.8901,0,U,46142,999,32341,.79666E-3,.146979E-2,0
STARLINK-1606,2020-057AD,2026-06-26T22:25:16.517280,16.32538154,.00102008,53.0229,67.3795,251.3591,108.6345,0,U,46144,999,31244,.83499344E-3,.5096071E-1,.12126657E-4
